[{"OBJECT_NAME":"STARLINK-32172","OBJECT_ID":"2024-183K","EPOCH":"2026-03-02T15:15:42.483168","MEAN_MOTION":15.30185789,"ECCENTRICITY":0.0001137,"INCLINATION":53.1601,"RA_OF_ASC_NODE":175.1197,"ARG_OF_PERICENTER":110.9568,"MEAN_ANOMALY":249.1554,"EPHEMERIS_TYPE":0,"CLASSIFICATION_TYPE":"U","NORAD_CAT_ID":61518,"ELEMENT_SET_NO":999,"REV_AT_EPOCH":7857,"BSTAR":3.5159e-5,"MEAN_MOTION_DOT":6.82e-6,"MEAN_MOTION_DDOT":0},{"OBJECT_NAME":"STARLINK-32338","OBJECT_ID":"2024-183L","EPOCH":"2026-03-02T15:05:04.248960","MEAN_MOTION":15.3018616,"ECCENTRICITY":0.0001128,"INCLINATION":53.1601,"RA_OF_ASC_NODE":175.073,"ARG_OF_PERICENTER":124.3263,"MEAN_ANOMALY":235.7845,"EPHEMERIS_TYPE":0,"CLASSIFICATION_TYPE":"U","NORAD_CAT_ID":61519,"ELEMENT_SET_NO":999,"REV_AT_EPOCH":7857,"BSTAR":-1.0899e-5,"MEAN_MOTION_DOT":-6.82e-6,"MEAN_MOTION_DDOT":0},{"OBJECT_NAME":"STARLINK-32306","OBJECT_ID":"2024-183M","EPOCH":"2026-03-02T15:00:30.956256","MEAN_MOTION":15.3017591,"ECCENTRICITY":0.0001596,"INCLINATION":53.1598,"RA_OF_ASC_NODE":175.0541,"ARG_OF_PERICENTER":97.1274,"MEAN_ANOMALY":262.9909,"EPHEMERIS_TYPE":0,"CLASSIFICATION_TYPE":"U","NORAD_CAT_ID":61520,"ELEMENT_SET_NO":999,"REV_AT_EPOCH":7857,"BSTAR":6.0886e-5,"MEAN_MOTION_DOT":1.443e-5,"MEAN_MOTION_DDOT":0},{"OBJECT_NAME":"STARLINK-32297","OBJECT_ID":"2024-183N","EPOCH":"2026-03-02T16:30:00.535680","MEAN_MOTION":15.30185407,"ECCENTRICITY":9.42e-5,"INCLINATION":53.1599,"RA_OF_ASC_NODE":174.7305,"ARG_OF_PERICENTER":83.0447,"MEAN_ANOMALY":277.0661,"EPHEMERIS_TYPE":0,"CLASSIFICATION_TYPE":"U","NORAD_CAT_ID":61521,"ELEMENT_SET_NO":999,"REV_AT_EPOCH":7858,"BSTAR":1.0739e-6,"MEAN_MOTION_DOT":-3.27e-6,"MEAN_MOTION_DDOT":0},{"OBJECT_NAME":"STARLINK-32260","OBJECT_ID":"2024-183P","EPOCH":"2026-03-02T14:51:22.893408","MEAN_MOTION":15.3019751,"ECCENTRICITY":0.000109,"INCLINATION":53.16,"RA_OF_ASC_NODE":175.0138,"ARG_OF_PERICENTER":103.6505,"MEAN_ANOMALY":256.4617,"EPHEMERIS_TYPE":0,"CLASSIFICATION_TYPE":"U","NORAD_CAT_ID":61522,"ELEMENT_SET_NO":999,"REV_AT_EPOCH":7857,"BSTAR":8.1131e-5,"MEAN_MOTION_DOT":2.044e-5,"MEAN_MOTION_DDOT":0},{"OBJECT_NAME":"STARLINK-32305","OBJECT_ID":"2024-183Q","EPOCH":"2026-03-02T14:04:25.796352","MEAN_MOTION":15.30214524,"ECCENTRICITY":0.0001164,"INCLINATION":53.1595,"RA_OF_ASC_NODE":175.5232,"ARG_OF_PERICENTER":83.6909,"MEAN_ANOMALY":276.4224,"EPHEMERIS_TYPE":0,"CLASSIFICATION_TYPE":"U","NORAD_CAT_ID":61523,"ELEMENT_SET_NO":999,"REV_AT_EPOCH":7856,"BSTAR":0.00018299,"MEAN_MOTION_DOT":5.067e-5,"MEAN_MOTION_DDOT":0},{"OBJECT_NAME":"STARLINK-32296","OBJECT_ID":"2024-183R","EPOCH":"2026-03-02T16:20:53.234880","MEAN_MOTION":15.30190343,"ECCENTRICITY":8.27e-5,"INCLINATION":53.1589,"RA_OF_ASC_NODE":174.6894,"ARG_OF_PERICENTER":92.6968,"MEAN_ANOMALY":267.4127,"EPHEMERIS_TYPE":0,"CLASSIFICATION_TYPE":"U","NORAD_CAT_ID":61524,"ELEMENT_SET_NO":999,"REV_AT_EPOCH":7858,"BSTAR":5.2699e-5,"MEAN_MOTION_DOT":1.202e-5,"MEAN_MOTION_DDOT":0},{"OBJECT_NAME":"STARLINK-32298","OBJECT_ID":"2024-183S","EPOCH":"2026-03-02T13:08:12.945984","MEAN_MOTION":15.30198389,"ECCENTRICITY":9.56e-5,"INCLINATION":53.1589,"RA_OF_ASC_NODE":175.2753,"ARG_OF_PERICENTER":87.8866,"MEAN_ANOMALY":272.2244,"EPHEMERIS_TYPE":0,"CLASSIFICATION_TYPE":"U","NORAD_CAT_ID":61525,"ELEMENT_SET_NO":999,"REV_AT_EPOCH":7856,"BSTAR":-4.4053e-6,"MEAN_MOTION_DOT":-4.89e-6,"MEAN_MOTION_DDOT":0},{"OBJECT_NAME":"STARLINK-32293","OBJECT_ID":"2024-183T","EPOCH":"2026-03-02T14:37:52.756896","MEAN_MOTION":15.30194857,"ECCENTRICITY":8.81e-5,"INCLINATION":53.1603,"RA_OF_ASC_NODE":175.6645,"ARG_OF_PERICENTER":82.5176,"MEAN_ANOMALY":277.5925,"EPHEMERIS_TYPE":0,"CLASSIFICATION_TYPE":"U","NORAD_CAT_ID":61526,"ELEMENT_SET_NO":999,"REV_AT_EPOCH":7856,"BSTAR":-1.9269e-5,"MEAN_MOTION_DOT":-9.29e-6,"MEAN_MOTION_DDOT":0},{"OBJECT_NAME":"STARLINK-32313","OBJECT_ID":"2024-183U","EPOCH":"2026-03-02T14:28:45.507936","MEAN_MOTION":15.30196639,"ECCENTRICITY":8.69e-5,"INCLINATION":53.1593,"RA_OF_ASC_NODE":175.6198,"ARG_OF_PERICENTER":87.888,"MEAN_ANOMALY":272.222,"EPHEMERIS_TYPE":0,"CLASSIFICATION_TYPE":"U","NORAD_CAT_ID":61527,"ELEMENT_SET_NO":999,"REV_AT_EPOCH":7856,"BSTAR":-3.904e-6,"MEAN_MOTION_DOT":-4.74e-6,"MEAN_MOTION_DDOT":0},{"OBJECT_NAME":"STARLINK-32319","OBJECT_ID":"2024-183V","EPOCH":"2026-03-02T14:36:22.028256","MEAN_MOTION":15.30184781,"ECCENTRICITY":8.93e-5,"INCLINATION":53.16,"RA_OF_ASC_NODE":175.655,"ARG_OF_PERICENTER":67.3189,"MEAN_ANOMALY":292.7906,"EPHEMERIS_TYPE":0,"CLASSIFICATION_TYPE":"U","NORAD_CAT_ID":61528,"ELEMENT_SET_NO":999,"REV_AT_EPOCH":7856,"BSTAR":1.2204e-5,"MEAN_MOTION_DOT":2.0e-8,"MEAN_MOTION_DDOT":0},{"OBJECT_NAME":"STARLINK-32351","OBJECT_ID":"2024-183W","EPOCH":"2026-03-02T13:45:18.609120","MEAN_MOTION":15.30167628,"ECCENTRICITY":0.0001056,"INCLINATION":53.1595,"RA_OF_ASC_NODE":172.6204,"ARG_OF_PERICENTER":87.2712,"MEAN_ANOMALY":272.841,"EPHEMERIS_TYPE":0,"CLASSIFICATION_TYPE":"U","NORAD_CAT_ID":61529,"ELEMENT_SET_NO":999,"REV_AT_EPOCH":7860,"BSTAR":-3.602e-5,"MEAN_MOTION_DOT":-1.424e-5,"MEAN_MOTION_DDOT":0},{"OBJECT_NAME":"STARLINK-32261","OBJECT_ID":"2024-183X","EPOCH":"2026-03-02T17:21:40.716288","MEAN_MOTION":15.3019785,"ECCENTRICITY":0.0001252,"INCLINATION":53.1597,"RA_OF_ASC_NODE":174.965,"ARG_OF_PERICENTER":92.0058,"MEAN_ANOMALY":268.1087,"EPHEMERIS_TYPE":0,"CLASSIFICATION_TYPE":"U","NORAD_CAT_ID":61530,"ELEMENT_SET_NO":999,"REV_AT_EPOCH":7858,"BSTAR":-4.8909e-5,"MEAN_MOTION_DOT":-1.807e-5,"MEAN_MOTION_DDOT":0},{"OBJECT_NAME":"STARLINK-32358","OBJECT_ID":"2024-183Y","EPOCH":"2026-03-02T13:49:15.206880","MEAN_MOTION":15.30192949,"ECCENTRICITY":8.43e-5,"INCLINATION":53.1607,"RA_OF_ASC_NODE":175.4677,"ARG_OF_PERICENTER":77.8148,"MEAN_ANOMALY":282.2947,"EPHEMERIS_TYPE":0,"CLASSIFICATION_TYPE":"U","NORAD_CAT_ID":61531,"ELEMENT_SET_NO":999,"REV_AT_EPOCH":7856,"BSTAR":4.3582e-5,"MEAN_MOTION_DOT":9.32e-6,"MEAN_MOTION_DDOT":0},{"OBJECT_NAME":"STARLINK-11354 [DTC]","OBJECT_ID":"2024-184A","EPOCH":"2026-03-02T19:08:20.033376","MEAN_MOTION":15.69689914,"ECCENTRICITY":5.86e-5,"INCLINATION":53.159,"RA_OF_ASC_NODE":270.3251,"ARG_OF_PERICENTER":74.1721,"MEAN_ANOMALY":285.9361,"EPHEMERIS_TYPE":0,"CLASSIFICATION_TYPE":"U","NORAD_CAT_ID":61532,"ELEMENT_SET_NO":999,"REV_AT_EPOCH":7933,"BSTAR":-1.6773e-5,"MEAN_MOTION_DOT":-2.617e-5,"MEAN_MOTION_DDOT":0},{"OBJECT_NAME":"STARLINK-11323 [DTC]","OBJECT_ID":"2024-184B","EPOCH":"2026-03-02T18:54:09.008928","MEAN_MOTION":15.69734791,"ECCENTRICITY":0.0001335,"INCLINATION":53.1598,"RA_OF_ASC_NODE":270.2589,"ARG_OF_PERICENTER":107.4056,"MEAN_ANOMALY":252.7108,"EPHEMERIS_TYPE":0,"CLASSIFICATION_TYPE":"U","NORAD_CAT_ID":61533,"ELEMENT_SET_NO":999,"REV_AT_EPOCH":7933,"BSTAR":3.2554e-5,"MEAN_MOTION_DOT":3.36e-5,"MEAN_MOTION_DDOT":0},{"OBJECT_NAME":"STARLINK-11338 [DTC]","OBJECT_ID":"2024-184C","EPOCH":"2026-03-02T19:01:14.898720","MEAN_MOTION":15.69709159,"ECCENTRICITY":8.3e-5,"INCLINATION":53.1587,"RA_OF_ASC_NODE":270.2921,"ARG_OF_PERICENTER":105.7531,"MEAN_ANOMALY":254.3579,"EPHEMERIS_TYPE":0,"CLASSIFICATION_TYPE":"U","NORAD_CAT_ID":61534,"ELEMENT_SET_NO":999,"REV_AT_EPOCH":7933,"BSTAR":-4.2888e-6,"MEAN_MOTION_DOT":-1.108e-5,"MEAN_MOTION_DDOT":0}]
