STARLINK-32172          
1 61518U 24183K   26061.63590837  .00000682  00000+0  35159-4 0  9997
2 61518  53.1601 175.1197 0001137 110.9568 249.1554 15.30185789 78576
STARLINK-32338          
1 61519U 24183L   26061.62852140 -.00000682  00000+0 -10899-4 0  9991
2 61519  53.1601 175.0730 0001128 124.3263 235.7845 15.30186160 78578
STARLINK-32306          
1 61520U 24183M   26061.62535829  .00001443  00000+0  60886-4 0  9990
2 61520  53.1598 175.0541 0001596  97.1274 262.9909 15.30175910 78577
STARLINK-32297          
1 61521U 24183N   26061.68750620 -.00000327  00000+0  10739-5 0  9999
2 61521  53.1599 174.7305 0000942  83.0447 277.0661 15.30185407 78588
STARLINK-32260          
1 61522U 24183P   26061.61901497  .00002044  00000+0  81131-4 0  9993
2 61522  53.1600 175.0138 0001090 103.6505 256.4617 15.30197510 78578
STARLINK-32305          
1 61523U 24183Q   26061.58640968  .00005067  00000+0  18299-3 0  9995
2 61523  53.1595 175.5232 0001164  83.6909 276.4224 15.30214524 78569
STARLINK-32296          
1 61524U 24183R   26061.68117170  .00001202  00000+0  52699-4 0  9991
2 61524  53.1589 174.6894 0000827  92.6968 267.4127 15.30190343 78583
STARLINK-32298          
1 61525U 24183S   26061.54737206 -.00000489  00000+0 -44053-5 0  9999
2 61525  53.1589 175.2753 0000956  87.8866 272.2244 15.30198389 78561
STARLINK-32293          
1 61526U 24183T   26061.60963839 -.00000929  00000+0 -19269-4 0  9999
2 61526  53.1603 175.6645 0000881  82.5176 277.5925 15.30194857 78566
STARLINK-32313          
1 61527U 24183U   26061.60330449 -.00000474  00000+0 -39040-5 0  9990
2 61527  53.1593 175.6198 0000869  87.8880 272.2220 15.30196639 78564
STARLINK-32319          
1 61528U 24183V   26061.60858829  .00000002  00000+0  12204-4 0  9995
2 61528  53.1600 175.6550 0000893  67.3189 292.7906 15.30184781 78561
STARLINK-32351          
1 61529U 24183W   26061.57313205 -.00001424  00000+0 -36020-4 0  9999
2 61529  53.1595 172.6204 0001056  87.2712 272.8410 15.30167628 78608
STARLINK-32261          
1 61530U 24183X   26061.72338792 -.00001807  00000+0 -48909-4 0  9990
2 61530  53.1597 174.9650 0001252  92.0058 268.1087 15.30197850 78582
STARLINK-32358          
1 61531U 24183Y   26061.57587045  .00000932  00000+0  43582-4 0  9999
2 61531  53.1607 175.4677 0000843  77.8148 282.2947 15.30192949 78560
STARLINK-11354 [DTC]    
1 61532U 24184A   26061.79745409 -.00002617  00000+0 -16773-4 0  9991
2 61532  53.1590 270.3251 0000586  74.1721 285.9361 15.69689914 79337
STARLINK-11323 [DTC]    
1 61533U 24184B   26061.78760427  .00003360  00000+0  32554-4 0  9997
2 61533  53.1598 270.2589 0001335 107.4056 252.7108 15.69734791 79338
STARLINK-11338 [DTC]    
1 61534U 24184C   26061.79253355 -.00001108  00000+0 -42888-5 0  9998
2 61534  53.1587 270.2921 0000830 105.7531 254.3579 15.69709159 79335
